full_name,a,e,i,om,w,ma
       (2014 WK368),2.155301955,0.712327003,14.30280949,237.2064812,105.146141,345.7263563
       (2014 XJ3),2.13322994,0.72704873,1.223904261,22.34552073,161.6229363,316.4199126
       (2014 XL7),1.654001909,0.533356107,7.502170835,74.4785269,250.7568942,349.2569456
       (2014 YY8),2.127829675,0.595513863,20.01283183,14.36300422,134.639118,314.3438773
       (2014 YL14),2.753166014,0.764154675,5.916847473,67.90190775,290.9783864,123.1690644
       (2014 YR15),0.749641309,0.409263813,5.7091967,320.5685134,308.9623798,272.7869183
       (2014 YS34),1.553404304,0.385365582,6.881327756,210.1130021,321.8714387,353.8441682
       (2014 YW34),1.40670592,0.425403862,6.027429089,314.3275429,57.26420357,253.6373333
       (2015 AH),0.906877375,0.240492191,14.07069056,255.3192316,70.60371079,72.52497469
       (2015 AR45),1.385119186,0.701347689,9.232822421,114.3945772,239.580852,271.7865787
       (2015 AY245),1.127032651,0.109604788,13.59372409,143.6661694,13.04073907,316.2134115
       (2015 BS4),2.750843045,0.645266168,6.135971045,355.4425287,186.750445,96.28142287
       (2015 BZ310),2.033652035,0.553245309,4.082882764,305.1161193,271.4481425,343.9910108
       (2015 BL311),2.366060624,0.844242617,1.718173271,220.3792367,143.2118996,234.5823627
       (2015 BN311),1.415638306,0.323660386,16.81534236,98.58051062,228.1304334,309.9281041
       (2015 BK515),1.749468785,0.446431886,5.27302038,152.4613342,59.19698817,150.3091721
       (2015 BP515),1.250627068,0.171480261,17.75266174,134.350159,196.5809356,241.6952109
       (2015 BO519),3.597325363,0.851668979,6.111502654,215.7410014,279.8825656,353.844195
       (2015 CX12),2.00266265,0.609528861,5.736527931,195.8947762,227.5427636,42.15469855
       (2015 CV13),1.33827211,0.288110365,13.04021606,124.8220653,132.4933289,195.5522925
       (2015 CZ13),2.804175705,0.762473966,19.03986165,145.879306,77.4176181,68.62858784
       (2015 DB1),1.155026687,0.25461206,38.11513457,144.4351226,242.3781768,340.9097447
       (2015 DH155),2.44644338,0.699362993,12.47105924,169.8907821,262.0841276,204.3974531
       (2015 DP155),1.315861732,0.223545416,5.44035083,89.15201901,152.1415286,252.4818094
       (2015 DU180),1.926560261,0.921950242,4.852903344,51.82852971,315.3255723,84.53972821
       (2015 DC200),1.777307299,0.865902714,3.058013377,224.1509006,85.75502123,126.9986353
       (2015 DN215),2.738885643,0.748176475,10.36206307,3.235154895,80.72546414,111.3260084
       (2015 DR215),0.666403364,0.471526412,4.088231422,314.9516205,42.27854311,69.75997125
       (2015 EK7),1.510474367,0.366359837,3.425250268,140.7900155,125.7997169,337.9842933
       (2015 EO61),1.455043443,0.734407123,1.978436547,43.65096562,261.3486776,52.77989925
       (2015 FJ),2.583289892,0.78417209,8.260557681,189.6524702,99.85814374,119.2027666
       (2015 FL),2.684533664,0.651884235,15.71089035,11.67708494,224.8225436,98.56091294
       (2015 FF35),1.882928783,0.520771283,8.816935853,235.1619586,35.38897154,32.99083082
       (2015 FQ117),0.860686117,0.620488573,4.559979863,293.8922642,63.09491026,250.0252472
       (2015 FS117),1.186518117,0.254355946,28.37316413,356.5735206,54.17995884,257.6781018
       (2015 FN118),1.652479811,0.544371466,27.66895585,195.0909901,247.6489701,304.5051166
       (2015 FT118),1.167144982,0.190735502,21.09470458,196.745708,154.5887273,63.72926374
       (2015 FE120),2.251137798,0.55127939,22.79290042,21.50885061,188.9783754,238.5224998
       (2015 FV284),1.782802935,0.48941698,8.824869346,317.157833,148.4702024,173.0928582
       (2015 FS332),1.806706361,0.474874841,35.13078918,193.5159039,135.765383,65.51931373
       (2015 GS),1.727265183,0.47696971,11.85860672,113.8295755,20.94274267,205.4385701
       (2015 GY),1.068001382,0.200143737,11.80605312,207.7717764,108.6573246,317.9951578
       (2015 GZ13),1.821609182,0.598527481,33.50234915,44.61090516,282.3649228,63.83443005
       (2015 HB10),1.85352166,0.571945107,5.703775587,6.186199034,79.63974551,160.3193901
       (2015 HR11),1.214193931,0.169317881,31.15959343,210.7039724,198.0220379,220.2367065
       (2015 HY116),2.726171613,0.693863286,14.13068018,92.81095391,248.3274265,46.44565476
       (2015 HX176),3.891972832,0.803244633,28.26892665,15.76007735,123.6489955,268.8240567
       (2015 HV182),1.404739832,0.280213148,0.678347662,155.1947247,254.9352989,284.5283404
       (2015 JV),2.45531353,0.670051592,7.224873096,87.35366939,73.77119647,176.5293866
       (2015 JD1),1.218003396,0.222516716,19.14006547,221.1690539,128.076817,332.5944179
       (2015 JY1),2.11421823,0.505177774,8.515236191,268.0087725,16.79375739,277.3945857
       (2015 KB19),1.719463143,0.434473195,7.018638448,253.0750501,40.25304882,142.3236253
       (2015 KJ122),0.785367285,0.750266473,5.066014592,187.9131632,229.7803662,195.9924197
       (2015 KH157),1.792918019,0.531968211,21.56828149,89.42242136,51.18570979,140.9938874
       (2015 KL157),2.64105861,0.618206303,35.55866266,279.257617,5.096827995,92.18404701
       (2015 LK24),2.670940374,0.618081421,14.42689668,94.90160773,202.4917466,87.94169382
       (2015 MW53),1.20228644,0.196743486,36.45416872,85.52510237,314.8111064,314.206109
       (2015 MT96),2.261560735,0.535976383,10.42359828,177.6232118,173.2425145,187.8960978
       (2015 MG116),1.464784439,0.565712585,2.45174668,174.7889338,201.7858844,326.402748
       (2015 ME131),0.816231733,0.212453295,33.64462412,317.7887577,156.86389,358.697875
       (2015 NU2),1.139123429,0.648286769,8.14079945,243.7185036,279.837067,222.0413189
       (2015 NJ3),1.688062461,0.670590165,12.27746533,134.423634,251.3921388,138.8883457
       (2015 NK13),2.252895902,0.558691635,8.095585689,192.8915652,192.4059757,191.3018409
       (2015 NU13),1.829940035,0.590043337,4.208918079,139.9079753,260.4084085,8.200353747
       (2015 NZ13),2.015851468,0.780469081,6.577005031,175.4109235,239.6543162,300.5802943
       (2015 OC22),2.149341481,0.90291291,11.64477724,124.7967455,321.6296072,235.5202488
       (2015 OL35),2.587403737,0.644223425,4.488928175,134.6620444,296.3899165,80.75631099
       (2015 PM),1.307279258,0.632894492,7.463653093,181.0957124,244.2854155,163.7829763
       (2015 PR228),2.597228009,0.688704872,7.276852539,320.5123904,107.1668777,66.12955476
       (2015 PU228),2.28127205,0.789687149,9.444611035,301.8569438,271.6024788,215.9347706
       (2015 PM307),2.18456802,0.860719913,8.037905445,142.1075266,319.1646375,343.9641184
       (2015 QO3),2.264317424,0.851720844,9.997577434,159.0238243,308.1969695,181.4463199
       (2015 RS1),2.137602636,0.512708332,7.972574419,336.4143459,334.2254867,257.1265864
       (2015 RH2),1.21719469,0.266324399,5.35677822,332.4064972,115.2962395,262.6571915
       (2015 RA36),2.602242999,0.641963646,34.5059209,156.1174135,157.6079906,100.1667135
       (2015 RP82),2.467323792,0.620556197,24.76313551,193.7680992,36.1015216,170.1126151
       (2015 RR150),2.03830053,0.49839016,42.16152997,174.2188851,167.2936188,299.1205394
       (2015 SY16),1.242357006,0.498495833,5.27388789,294.5396285,305.6835992,337.9585463
       (2015 TX24),2.265337161,0.872448405,6.049872491,32.82697764,127.150586,170.5108968
       (2015 TV144),2.425294553,0.654589747,13.00096833,92.67355869,54.98870017,109.7501478
       (2015 TB145),2.100693024,0.860081061,39.69604211,37.68537525,121.7498074,233.1619412
       (2015 TH145),2.970925121,0.716404465,12.78729126,351.8713859,128.9526895,349.3764121
       (2015 TK178),2.317193978,0.565532786,11.357834,86.1275692,212.0554402,210.7113639
       (2015 TL178),2.097931685,0.688623829,6.654803611,68.73057805,55.10362696,234.3404216
       (2015 TR178),2.377783469,0.68811223,10.50361009,200.7117998,82.22959244,172.2533427
       (2015 TM237),1.572868195,0.53744242,13.79518926,159.8034466,90.83536585,4.799716792
       (2015 TY237),1.219762053,0.499476054,5.726060182,111.3567453,119.2140187,31.47255628
       (2015 TK238),2.411326644,0.607134185,3.673534686,170.1267632,161.9710367,147.889004
       (2015 TD323),1.616215155,0.631028276,48.91260657,13.91543502,95.89841886,334.2316239
       (2015 TE323),2.205377654,0.596812935,9.542082059,194.416744,323.5379761,146.8972327
       (2015 UR51),1.763633032,0.422832281,19.35084055,221.8255935,176.8636167,73.75585838
       (2015 UK52),1.555378271,0.368818309,20.95048032,239.1329387,216.7927019,198.3270045
       (2015 VE1),2.244734146,0.567120935,1.898916643,98.27637455,273.4747273,194.7932408
       (2015 WA2),1.599822577,0.62942294,14.59901522,31.68238164,273.3217286,218.5184018
       (2015 WG9),2.032314286,0.691706028,34.37104122,239.4098211,89.99045063,286.2449059
       (2015 XP129),1.586337038,0.394430884,20.04467361,269.4960099,16.88139463,291.0904256
       (2015 XK261),2.250219947,0.579446235,8.067359474,208.8120665,318.4456421,155.3859758
       (2015 XK351),1.605451423,0.57556218,11.84318813,136.1254171,67.46588276,131.246181
       (2015 XE352),1.335534014,0.388997183,2.047896406,45.25033539,225.5358348,231.081831
       (2015 XW377),2.521363676,0.594832278,12.74347813,143.4737656,9.370474593,70.54694671
       (2015 XU378),1.974435972,0.485552546,23.74074929,89.68550351,3.237847571,287.3277135
       (2015 YU7),0.819244523,0.412667428,7.19101356,254.0770797,44.22168286,11.55420417
       (2015 YY9),1.863929197,0.564212615,8.285423197,78.11915735,300.093525,23.09306892
       (2016 AL8),1.779454691,0.432482308,7.914364154,144.9710296,23.91121115,11.06284906
       (2016 AZ8),1.320566341,0.354952129,5.586087137,90.01355378,318.5196167,129.2756845
       (2016 AA10),1.879370033,0.508924987,12.65611569,59.74017751,342.4858247,346.7228395
       (2016 AC65),1.629106055,0.729029832,10.57968879,282.2251743,59.15539365,176.2539504
       (2016 AH193),1.432615775,0.766187626,17.85385848,125.585126,242.3830101,342.6022074
